{
  "type": "FeatureCollection",
  "name": "reference_2d_geology_conformal_domain",
  "crs": {
    "type": "name",
    "properties": {
      "name": "EPSG:2154"
    }
  },
  "features": [
    {
      "type": "Feature",
      "properties": {
        "domain_id": "main"
      },
      "geometry": {
        "type": "Polygon",
        "coordinates": [
          [
            [355000.0, 6712500.0],
            [359000.0, 6712500.0],
            [359000.0, 6716500.0],
            [355000.0, 6716500.0],
            [355000.0, 6712500.0]
          ]
        ]
      }
    }
  ]
}
