{
  "type": "FeatureCollection",
  "name": "aura_area_50_150_16",
  "hydromodpy_coordinate_crs": "EPSG:2154",
  "features": [
    {
      "type": "Feature",
      "id": "aura_area_50_150_16",
      "properties": {
        "site_id": "aura_area_50_150_16",
        "area_km2": 129.0,
        "source": "fixture_area_grid"
      },
      "geometry": {
        "type": "Polygon",
        "coordinates": [
          [
            [
              836321.0916541998,
              6544321.0916542
            ],
            [
              847678.9083458002,
              6544321.0916542
            ],
            [
              847678.9083458002,
              6555678.9083458
            ],
            [
              836321.0916541998,
              6555678.9083458
            ],
            [
              836321.0916541998,
              6544321.0916542
            ]
          ]
        ]
      }
    }
  ]
}